{"type": "FeatureCollection", "features": [ {"type": "Feature", "properties": {"norad_id": 66767, "name": "TRANSPORTER-15 DF", "group": "last-30-days", "lat": 60.01017418842186, "lon": -99.05628186815885, "alt_km": 503.98995586100955, "timestamp": "2025-12-22T05:49:02.186039+00:00", "meta": {"OBJECT_NAME": "TRANSPORTER-15 DF", "OBJECT_ID": "2025-276DF", "EPOCH": "2025-12-21T19:48:15.735168", "MEAN_MOTION": 15.18289241, "ECCENTRICITY": 0.0002053, "INCLINATION": 97.4373, "RA_OF_ASC_NODE": 67.4512, "ARG_OF_PERICENTER": 90.1937, "MEAN_ANOMALY": 269.9532, "EPHEMERIS_TYPE": 0, "CLASSIFICATION_TYPE": "U", "NORAD_CAT_ID": 66767, "ELEMENT_SET_NO": 999, "REV_AT_EPOCH": 350, "BSTAR": 0.00024997, "MEAN_MOTION_DOT": 5.058e-05, "MEAN_MOTION_DDOT": 0}, "tle": {"line1": "1 66767U 25276DF  25355.82518212  .00005058  00000+0  24997-3 0  9994", "line2": "2 66767  97.4373  67.4512 0002053  90.1937 269.9532 15.18289241  3506"}}, "geometry": {"type": "Point", "coordinates": [-99.05628186815885, 60.01017418842186]}}, {"type": "Feature", "properties": {"norad_id": 66768, "name": "TRANSPORTER-15 DG", "group": "last-30-days", "lat": 49.18951423541154, "lon": -103.43794866095718, "alt_km": 505.008444183959, "timestamp": "2025-12-22T05:49:02.186049+00:00", "meta": {"OBJECT_NAME": "TRANSPORTER-15 DG", "OBJECT_ID": "2025-276DG", "EPOCH": "2025-12-21T19:45:25.471872", "MEAN_MOTION": 15.18497119, "ECCENTRICITY": 0.0002221, "INCLINATION": 97.4359, "RA_OF_ASC_NODE": 67.4504, "ARG_OF_PERICENTER": 79.8798, "MEAN_ANOMALY": 280.2687, "EPHEMERIS_TYPE": 0, "CLASSIFICATION_TYPE": "U", "NORAD_CAT_ID": 66768, "ELEMENT_SET_NO": 999, "REV_AT_EPOCH": 350, "BSTAR": 0.00043516, "MEAN_MOTION_DOT": 8.912e-05, "MEAN_MOTION_DDOT": 0}, "tle": {"line1": "1 66768U 25276DG  25355.82321148  .00008912  00000+0  43516-3 0  9995", "line2": "2 66768  97.4359  67.4504 0002221  79.8798 280.2687 15.18497119  3500"}}, "geometry": {"type": "Point", "coordinates": [-103.43794866095718, 49.18951423541154]}}, {"type": "Feature", "properties": {"norad_id": 66769, "name": "TRANSPORTER-15 DH", "group": "last-30-days", "lat": 53.7161978074346, "lon": -101.86622534789396, "alt_km": 503.96674879502643, "timestamp": "2025-12-22T05:49:02.186059+00:00", "meta": {"OBJECT_NAME": "TRANSPORTER-15 DH", "OBJECT_ID": "2025-276DH", "EPOCH": "2025-12-21T19:46:35.777280", "MEAN_MOTION": 15.18386102, "ECCENTRICITY": 0.0002637, "INCLINATION": 97.442, "RA_OF_ASC_NODE": 67.4659, "ARG_OF_PERICENTER": 108.3309, "MEAN_ANOMALY": 251.8212, "EPHEMERIS_TYPE": 0, "CLASSIFICATION_TYPE": "U", "NORAD_CAT_ID": 66769, "ELEMENT_SET_NO": 999, "REV_AT_EPOCH": 350, "BSTAR": 0.00023208, "MEAN_MOTION_DOT": 4.704e-05, "MEAN_MOTION_DDOT": 0}, "tle": {"line1": "1 66769U 25276DH  25355.82402520  .00004704  00000+0  23208-3 0  9991", "line2": "2 66769  97.4420  67.4659 0002637 108.3309 251.8212 15.18386102  3505"}}, "geometry": {"type": "Point", "coordinates": [-101.86622534789396, 53.7161978074346]}}, {"type": "Feature", "properties": {"norad_id": 66770, "name": "TRANSPORTER-15 DJ", "group": "last-30-days", "lat": 51.857558345112075, "lon": -102.5258114350298, "alt_km": 503.87237156098126, "timestamp": "2025-12-22T05:49:02.186071+00:00", "meta": {"OBJECT_NAME": "TRANSPORTER-15 DJ", "OBJECT_ID": "2025-276DJ", "EPOCH": "2025-12-21T15:01:24.092256", "MEAN_MOTION": 15.18385654, "ECCENTRICITY": 0.0002974, "INCLINATION": 97.4451, "RA_OF_ASC_NODE": 67.2818, "ARG_OF_PERICENTER": 125.2655, "MEAN_ANOMALY": 234.8858, "EPHEMERIS_TYPE": 0, "CLASSIFICATION_TYPE": "U", "NORAD_CAT_ID": 66770, "ELEMENT_SET_NO": 999, "REV_AT_EPOCH": 347, "BSTAR": 0.000415, "MEAN_MOTION_DOT": 8.469e-05, "MEAN_MOTION_DDOT": 0}, "tle": {"line1": "1 66770U 25276DJ  25355.62597329  .00008469  00000+0  41500-3 0  9990", "line2": "2 66770  97.4451  67.2818 0002974 125.2655 234.8858 15.18385654  3476"}}, "geometry": {"type": "Point", "coordinates": [-102.5258114350298, 51.857558345112075]}}, {"type": "Feature", "properties": {"norad_id": 66771, "name": "TRANSPORTER-15 DK", "group": "last-30-days", "lat": 49.76371159767828, "lon": -103.22359953257336, "alt_km": 504.1310940834628, "timestamp": "2025-12-22T05:49:02.186081+00:00", "meta": {"OBJECT_NAME": "TRANSPORTER-15 DK", "OBJECT_ID": "2025-276DK", "EPOCH": "2025-12-21T16:35:46.280832", "MEAN_MOTION": 15.18450746, "ECCENTRICITY": 0.0002795, "INCLINATION": 97.4443, "RA_OF_ASC_NODE": 67.3447, "ARG_OF_PERICENTER": 118.4696, "MEAN_ANOMALY": 241.682, "EPHEMERIS_TYPE": 0, "CLASSIFICATION_TYPE": "U", "NORAD_CAT_ID": 66771, "ELEMENT_SET_NO": 999, "REV_AT_EPOCH": 348, "BSTAR": 0.0004433, "MEAN_MOTION_DOT": 9.068e-05, "MEAN_MOTION_DDOT": 0}, "tle": {"line1": "1 66771U 25276DK  25355.69150788  .00009068  00000+0  44330-3 0  9992", "line2": "2 66771  97.4443  67.3447 0002795 118.4696 241.6820 15.18450746  3488"}}, "geometry": {"type": "Point", "coordinates": [-103.22359953257336, 49.76371159767828]}}, {"type": "Feature", "properties": {"norad_id": 66772, "name": "TRANSPORTER-15 DL", "group": "last-30-days", "lat": 37.75530126042724, "lon": -106.29962675364455, "alt_km": 505.6337521923888, "timestamp": "2025-12-22T05:49:02.186091+00:00", "meta": {"OBJECT_NAME": "TRANSPORTER-15 DL", "OBJECT_ID": "2025-276DL", "EPOCH": "2025-12-21T16:32:40.297056", "MEAN_MOTION": 15.18659039, "ECCENTRICITY": 0.0002841, "INCLINATION": 97.4437, "RA_OF_ASC_NODE": 67.3446, "ARG_OF_PERICENTER": 105.2729, "MEAN_ANOMALY": 254.882, "EPHEMERIS_TYPE": 0, "CLASSIFICATION_TYPE": "U", "NORAD_CAT_ID": 66772, "ELEMENT_SET_NO": 999, "REV_AT_EPOCH": 348, "BSTAR": 0.00050045, "MEAN_MOTION_DOT": 0.0001031, "MEAN_MOTION_DDOT": 0}, "tle": {"line1": "1 66772U 25276DL  25355.68935529  .00010310  00000+0  50045-3 0  9998", "line2": "2 66772  97.4437  67.3446 0002841 105.2729 254.8820 15.18659039  3486"}}, "geometry": {"type": "Point", "coordinates": [-106.29962675364455, 37.75530126042724]}}, {"type": "Feature", "properties": {"norad_id": 66773, "name": "TRANSPORTER-15 DM", "group": "last-30-days", "lat": 43.75075222555687, "lon": -104.92504547278257, "alt_km": 505.0234850660145, "timestamp": "2025-12-22T05:49:02.186101+00:00", "meta": {"OBJECT_NAME": "TRANSPORTER-15 DM", "OBJECT_ID": "2025-276DM", "EPOCH": "2025-12-21T14:59:18.439008", "MEAN_MOTION": 15.18513121, "ECCENTRICITY": 0.0002909, "INCLINATION": 97.4432, "RA_OF_ASC_NODE": 67.2771, "ARG_OF_PERICENTER": 103.681, "MEAN_ANOMALY": 256.4748, "EPHEMERIS_TYPE": 0, "CLASSIFICATION_TYPE": "U", "NORAD_CAT_ID": 66773, "ELEMENT_SET_NO": 999, "REV_AT_EPOCH": 347, "BSTAR": 0.00049985, "MEAN_MOTION_DOT": 0.00010254, "MEAN_MOTION_DDOT": 0}, "tle": {"line1": "1 66773U 25276DM  25355.62451897  .00010254  00000+0  49985-3 0  9992", "line2": "2 66773  97.4432  67.2771 0002909 103.6810 256.4748 15.18513121  3477"}}, "geometry": {"type": "Point", "coordinates": [-104.92504547278257, 43.75075222555687]}}, {"type": "Feature", "properties": {"norad_id": 66774, "name": "TRANSPORTER-15 DN", "group": "last-30-days", "lat": 41.22641122921817, "lon": -105.54045062642493, "alt_km": 505.3625384340685, "timestamp": "2025-12-22T05:49:02.186113+00:00", "meta": {"OBJECT_NAME": "TRANSPORTER-15 DN", "OBJECT_ID": "2025-276DN", "EPOCH": "2025-12-21T16:33:32.911200", "MEAN_MOTION": 15.18562517, "ECCENTRICITY": 0.0002994, "INCLINATION": 97.4421, "RA_OF_ASC_NODE": 67.3388, "ARG_OF_PERICENTER": 99.409, "MEAN_ANOMALY": 260.7483, "EPHEMERIS_TYPE": 0, "CLASSIFICATION_TYPE": "U", "NORAD_CAT_ID": 66774, "ELEMENT_SET_NO": 999, "REV_AT_EPOCH": 348, "BSTAR": 0.00042951, "MEAN_MOTION_DOT": 8.813e-05, "MEAN_MOTION_DDOT": 0}, "tle": {"line1": "1 66774U 25276DN  25355.68996425  .00008813  00000+0  42951-3 0  9994", "line2": "2 66774  97.4421  67.3388 0002994  99.4090 260.7483 15.18562517  3485"}}, "geometry": {"type": "Point", "coordinates": [-105.54045062642493, 41.22641122921817]}}, {"type": "Feature", "properties": {"norad_id": 66775, "name": "TRANSPORTER-15 DP", "group": "last-30-days", "lat": 37.21733758835808, "lon": -106.44390433374252, "alt_km": 506.78288078958485, "timestamp": "2025-12-22T05:49:02.186123+00:00", "meta": {"OBJECT_NAME": "TRANSPORTER-15 DP", "OBJECT_ID": "2025-276DP", "EPOCH": "2025-12-21T14:57:37.835712", "MEAN_MOTION": 15.1862694, "ECCENTRICITY": 0.0002845, "INCLINATION": 97.4349, "RA_OF_ASC_NODE": 67.2552, "ARG_OF_PERICENTER": 71.4219, "MEAN_ANOMALY": 288.7324, "EPHEMERIS_TYPE": 0, "CLASSIFICATION_TYPE": "U", "NORAD_CAT_ID": 66775, "ELEMENT_SET_NO": 999, "REV_AT_EPOCH": 347, "BSTAR": 0.00039075, "MEAN_MOTION_DOT": 8.025e-05, "MEAN_MOTION_DDOT": 0}, "tle": {"line1": "1 66775U 25276DP  25355.62335458  .00008025  00000+0  39075-3 0  9990", "line2": "2 66775  97.4349  67.2552 0002845  71.4219 288.7324 15.18626940  3479"}}, "geometry": {"type": "Point", "coordinates": [-106.44390433374252, 37.21733758835808]}}, {"type": "Feature", "properties": {"norad_id": 66776, "name": "TRANSPORTER-15 DQ", "group": "last-30-days", "lat": 35.38108646906705, "lon": -106.80103947520233, "alt_km": 506.5436343119891, "timestamp": "2025-12-22T05:49:02.186133+00:00", "meta": {"OBJECT_NAME": "TRANSPORTER-15 DQ", "OBJECT_ID": "2025-276DQ", "EPOCH": "2025-12-21T16:32:02.681088", "MEAN_MOTION": 15.18667657, "ECCENTRICITY": 0.0002819, "INCLINATION": 97.4385, "RA_OF_ASC_NODE": 67.3306, "ARG_OF_PERICENTER": 86.3036, "MEAN_ANOMALY": 273.8521, "EPHEMERIS_TYPE": 0, "CLASSIFICATION_TYPE": "U", "NORAD_CAT_ID": 66776, "ELEMENT_SET_NO": 999, "REV_AT_EPOCH": 348, "BSTAR": 0.00045033, "MEAN_MOTION_DOT": 9.272e-05, "MEAN_MOTION_DDOT": 0}, "tle": {"line1": "1 66776U 25276DQ  25355.68891992  .00009272  00000+0  45033-3 0  9993", "line2": "2 66776  97.4385  67.3306 0002819  86.3036 273.8521 15.18667657  3486"}}, "geometry": {"type": "Point", "coordinates": [-106.80103947520233, 35.38108646906705]}}]}